*******************************************************************************
JPL/HORIZONS             3971 Voronikhin (1979 YM8)        2023-Sep-04 11:26:33
Rec #:    3971 (+COV) Soln.date: 2023-Aug-23_15:04:21   # obs: 3742 (1955-2023)
 
IAU76/J2000 helio. ecliptic osc. elements (au, days, deg., period=Julian yrs):
 
  EPOCH=  2457822.5 ! 2017-Mar-10.00 (TDB)         Residual RMS= .23685
   EC= .1843456459978559   QR= 2.323876635149811   TP= 2457928.066507421
   OM= 284.8237606647569   W=  83.52194007600008   IN= 13.00839942137198
   A= 2.849094869349158    MA= 338.3643542739057   ADIST= 3.374313103548506
   PER= 4.80915            N= .204948011           ANGMOM= .028538242
   DAN= 2.6962             DDN= 2.81073            L= 8.176583600000001
   B= 12.9238997           MOID= 1.36661005        TP= 2017-Jun-23.5665074210
 
Asteroid physical parameters (km, seconds, rotational period in hours):
   GM= n.a.                RAD= 15.998             ROTPER= 5.552
   H= 11.45                G= .150                 B-V= n.a.
                           ALBEDO= .058            STYP= Ch

ASTEROID comments: 
1: soln ref.= JPL#50, OCC=0
2: source=ORB
*******************************************************************************


*******************************************************************************
Ephemeris / API_USER Mon Sep  4 11:26:33 2023 Pasadena, USA      / Horizons
*******************************************************************************
Target body name: 3971 Voronikhin (1979 YM8)      {source: JPL#50}
Center body name: Solar System Barycenter (0)     {source: DE441}
Center-site name: BODY CENTER
*******************************************************************************
Start time      : A.D. 2023-Aug-12 00:00:00.0000 TDB
Stop  time      : A.D. 2023-Aug-13 00:00:00.0000 TDB
Step-size       : 2880 minutes
*******************************************************************************
Center geodetic : 0.0, 0.0, 0.0                   {E-lon(deg),Lat(deg),Alt(km)}
Center cylindric: 0.0, 0.0, 0.0                   {E-lon(deg),Dxy(km),Dz(km)}
Center radii    : (undefined)
Small perturbers: Yes                             {source: SB441-N16}
Output units    : KM-S
Calendar mode   : Mixed Julian/Gregorian
Output type     : GEOMETRIC cartesian states
Output format   : 2 (position and velocity)
Reference frame : Ecliptic of J2000.0
*******************************************************************************
Initial IAU76/J2000 heliocentric ecliptic osculating elements (au, days, deg.):
  EPOCH=  2457822.5 ! 2017-Mar-10.00 (TDB)         Residual RMS= .23685        
   EC= .1843456459978559   QR= 2.323876635149811   TP= 2457928.066507421       
   OM= 284.8237606647569   W=  83.52194007600008   IN= 13.00839942137198       
  Equivalent ICRF heliocentric cartesian coordinates (au, au/d):
   X= 2.140739431370887E+00  Y=-1.036106662336697E+00  Z= 1.093139960825940E-02
  VX= 3.630837264096434E-03 VY= 9.854399301906458E-03 VZ= 5.889607034961468E-03
Asteroid physical parameters (km, seconds, rotational period in hours):        
   GM= n.a.                RAD= 15.998             ROTPER= 5.552               
   H= 11.45                G= .150                 B-V= n.a.                   
                           ALBEDO= .058            STYP= Ch                    
*******************************************************************************
JDTDB
   X     Y     Z
   VX    VY    VZ
*******************************************************************************
$$SOE
2460168.500000000 = A.D. 2023-Aug-12 00:00:00.0000 TDB 
 X =-2.706611505707909E+08 Y = 3.616352363175023E+08 Z =-3.881659277035877E+07
 VX=-1.433640410612029E+01 VY=-7.482059016579170E+00 VZ=-3.641236255100846E+00
$$EOE
*******************************************************************************
 
TIME

  Barycentric Dynamical Time ("TDB" or T_eph) output was requested. This
continuous coordinate time is equivalent to the relativistic proper time
of a clock at rest in a reference frame co-moving with the solar system
barycenter but outside the system's gravity well. It is the independent
variable in the solar system relativistic equations of motion.

  TDB runs at a uniform rate of one SI second per second and is independent
of irregularities in Earth's rotation.
 
CALENDAR SYSTEM

  Mixed calendar mode was active such that calendar dates after AD 1582-Oct-15
(if any) are in the modern Gregorian system. Dates prior to 1582-Oct-5 (if any)
are in the Julian calendar system, which is automatically extended for dates
prior to its adoption on 45-Jan-1 BC.  The Julian calendar is useful for
matching historical dates. The Gregorian calendar more accurately corresponds
to the Earth's orbital motion and seasons. A "Gregorian-only" calendar mode is
available if such physical events are the primary interest.

REFERENCE FRAME AND COORDINATES

  Ecliptic at the standard reference epoch

    Reference epoch: J2000.0
    X-Y plane: adopted Earth orbital plane at the reference epoch
               Note: IAU76 obliquity of 84381.448 arcseconds wrt ICRF X-Y plane
    X-axis   : ICRF
    Z-axis   : perpendicular to the X-Y plane in the directional (+ or -) sense
               of Earth's north pole at the reference epoch.

  Symbol meaning:

    JDTDB    Julian Day Number, Barycentric Dynamical Time
      X      X-component of position vector (km)
      Y      Y-component of position vector (km)
      Z      Z-component of position vector (km)
      VX     X-component of velocity vector (km/sec)                           
      VY     Y-component of velocity vector (km/sec)                           
      VZ     Z-component of velocity vector (km/sec)                           

ABERRATIONS AND CORRECTIONS

 Geometric state vectors have NO corrections or aberrations applied.

Computations by ...

    Solar System Dynamics Group, Horizons On-Line Ephemeris System
    4800 Oak Grove Drive, Jet Propulsion Laboratory
    Pasadena, CA  91109   USA

    General site: https://ssd.jpl.nasa.gov/
    Mailing list: https://ssd.jpl.nasa.gov/email_list.html
    System news : https://ssd.jpl.nasa.gov/horizons/news.html
    User Guide  : https://ssd.jpl.nasa.gov/horizons/manual.html
    Connect     : browser        https://ssd.jpl.nasa.gov/horizons/app.html#/x
                  API            https://ssd-api.jpl.nasa.gov/doc/horizons.html
                  command-line   telnet ssd.jpl.nasa.gov 6775
                  e-mail/batch   https://ssd.jpl.nasa.gov/ftp/ssd/hrzn_batch.txt
                  scripts        https://ssd.jpl.nasa.gov/ftp/ssd/SCRIPTS
    Author      : Jon.D.Giorgini@jpl.nasa.gov
*******************************************************************************
